COSMOS 2242             
1 22626U 93024A   26080.20288170  .00001851  00000+0  16004-3 0  9998
2 22626  82.5153 255.7008 0014935 266.5418  93.4096 14.96594715782116
SL-16 R/B               
1 22803U 93059B   26080.19338791  .00000199  00000+0  12228-3 0  9994
2 22803  70.9931 346.8692 0017862 199.8511 160.1920 14.17234382681168
ARIANE 40 R/B           
1 22830U 93061H   26080.15075570  .00000163  00000+0  75422-4 0  9993
2 22830  98.4894 148.8111 0009666 247.1514 112.8650 14.32866426695740
COSMOS 2278             
1 23087U 94023A   26080.19637729 -.00000208  00000+0 -83936-4 0  9992
2 23087  71.0537 151.0262 0008803 353.9834   6.1182 14.14378176646439
SL-16 R/B               
1 23088U 94023B   26080.16700284  .00000097  00000+0  74666-4 0  9991
2 23088  70.9996  46.7814 0005488 274.4055  85.6441 14.15010497647710
SL-16 R/B               
1 23343U 94074B   26080.08841624  .00000386  00000+0  58350-4 0  9999
2 23343  97.7094 110.4439 0006691 171.6066 248.7285 14.79420129688933
SL-16 R/B               
1 23405U 94077B   26080.14414804  .00000270  00000+0  16240-3 0  9997
2 23405  70.9847 328.3929 0002419 199.8144 160.2885 14.15566762617859
ARIANE 40+ R/B          
1 23561U 95021B   26080.21484452  .00000248  00000+0  93099-4 0  9997
2 23561  98.4476 151.5402 0007952 106.5497 318.6407 14.39780156620900
SL-16 R/B               
1 23705U 95058B   26080.29301635 -.00000026  00000+0  11171-4 0  9992
2 23705  71.0221 155.8961 0010237 104.3712 255.8548 14.15500893569494
SL-16 R/B               
1 24298U 96051B   26080.21410072  .00000101  00000+0  81256-4 0  9996
2 24298  70.7597 150.8479 0014110 129.8665 230.3698 14.12418766523270
ORBVIEW 2 (SEASTAR)     
1 24883U 97037A   26080.19750315  .00000229  00000+0  95800-4 0  9996
2 24883  98.8586 244.8153 0002737  47.5586 312.5829 14.35502562510124
SL-16 R/B               
1 25400U 98043G   26079.88755704  .00000045  00000+0  37825-4 0  9990
2 25400  98.8274  33.3315 0009627 348.4017  11.6939 14.26052163440580
