CCSDS_OMM_VERS = 2.0
CREATION_DATE  = 
ORIGINATOR     = 

OBJECT_NAME    = COSMOS 2242
OBJECT_ID      = 1993-024A
CENTER_NAME    = EARTH
REF_FRAME      = TEME
TIME_SYSTEM    = UTC
MEAN_ELEMENT_THEORY = SGP/SGP4

EPOCH          = 2026-03-21T04:52:08.978880
MEAN_MOTION    = 14.96594715
ECCENTRICITY   = .00149358
INCLINATION    = 82.5153
RA_OF_ASC_NODE = 255.7008
ARG_OF_PERICENTER = 266.5418
MEAN_ANOMALY   = 93.4096

EPHEMERIS_TYPE = 0
CLASSIFICATION_TYPE = U
NORAD_CAT_ID   = 22626
ELEMENT_SET_NO = 999
REV_AT_EPOCH   = 78211
BSTAR          = .160039E-3
MEAN_MOTION_DOT = .1851E-4
MEAN_MOTION_DDOT = 0

CCSDS_OMM_VERS = 2.0
CREATION_DATE  = 
ORIGINATOR     = 

OBJECT_NAME    = SL-16 R/B
OBJECT_ID      = 1993-059B
CENTER_NAME    = EARTH
REF_FRAME      = TEME
TIME_SYSTEM    = UTC
MEAN_ELEMENT_THEORY = SGP/SGP4

EPOCH          = 2026-03-21T04:38:28.715424
MEAN_MOTION    = 14.17234382
ECCENTRICITY   = .00178629
INCLINATION    = 70.9931
RA_OF_ASC_NODE = 346.8692
ARG_OF_PERICENTER = 199.8511
MEAN_ANOMALY   = 160.1920

EPHEMERIS_TYPE = 0
CLASSIFICATION_TYPE = U
NORAD_CAT_ID   = 22803
ELEMENT_SET_NO = 999
REV_AT_EPOCH   = 68116
BSTAR          = .12227929E-3
MEAN_MOTION_DOT = .199E-5
MEAN_MOTION_DDOT = 0

CCSDS_OMM_VERS = 2.0
CREATION_DATE  = 
ORIGINATOR     = 

OBJECT_NAME    = ARIANE 40 R/B
OBJECT_ID      = 1993-061H
CENTER_NAME    = EARTH
REF_FRAME      = TEME
TIME_SYSTEM    = UTC
MEAN_ELEMENT_THEORY = SGP/SGP4

EPOCH          = 2026-03-21T03:37:05.292480
MEAN_MOTION    = 14.32866426
ECCENTRICITY   = .00096661
INCLINATION    = 98.4894
RA_OF_ASC_NODE = 148.8111
ARG_OF_PERICENTER = 247.1514
MEAN_ANOMALY   = 112.8650

EPHEMERIS_TYPE = 0
CLASSIFICATION_TYPE = U
NORAD_CAT_ID   = 22830
ELEMENT_SET_NO = 999
REV_AT_EPOCH   = 69574
BSTAR          = .75422314E-4
MEAN_MOTION_DOT = .163E-5
MEAN_MOTION_DDOT = 0

CCSDS_OMM_VERS = 2.0
CREATION_DATE  = 
ORIGINATOR     = 

OBJECT_NAME    = COSMOS 2278
OBJECT_ID      = 1994-023A
CENTER_NAME    = EARTH
REF_FRAME      = TEME
TIME_SYSTEM    = UTC
MEAN_ELEMENT_THEORY = SGP/SGP4

EPOCH          = 2026-03-21T04:42:46.997856
MEAN_MOTION    = 14.14378176
ECCENTRICITY   = .00088032
INCLINATION    = 71.0537
RA_OF_ASC_NODE = 151.0262
ARG_OF_PERICENTER = 353.9834
MEAN_ANOMALY   = 6.1182

EPHEMERIS_TYPE = 0
CLASSIFICATION_TYPE = U
NORAD_CAT_ID   = 23087
ELEMENT_SET_NO = 999
REV_AT_EPOCH   = 64643
BSTAR          = -.83936233E-4
MEAN_MOTION_DOT = -.208E-5
MEAN_MOTION_DDOT = 0

CCSDS_OMM_VERS = 2.0
CREATION_DATE  = 
ORIGINATOR     = 

OBJECT_NAME    = SL-16 R/B
OBJECT_ID      = 1994-023B
CENTER_NAME    = EARTH
REF_FRAME      = TEME
TIME_SYSTEM    = UTC
MEAN_ELEMENT_THEORY = SGP/SGP4

EPOCH          = 2026-03-21T04:00:29.045376
MEAN_MOTION    = 14.15010497
ECCENTRICITY   = .00054889
INCLINATION    = 70.9996
RA_OF_ASC_NODE = 46.7814
ARG_OF_PERICENTER = 274.4055
MEAN_ANOMALY   = 85.6441

EPHEMERIS_TYPE = 0
CLASSIFICATION_TYPE = U
NORAD_CAT_ID   = 23088
ELEMENT_SET_NO = 999
REV_AT_EPOCH   = 64771
BSTAR          = .74666046E-4
MEAN_MOTION_DOT = .97E-6
MEAN_MOTION_DDOT = 0

CCSDS_OMM_VERS = 2.0
CREATION_DATE  = 
ORIGINATOR     = 

OBJECT_NAME    = SL-16 R/B
OBJECT_ID      = 1994-074B
CENTER_NAME    = EARTH
REF_FRAME      = TEME
TIME_SYSTEM    = UTC
MEAN_ELEMENT_THEORY = SGP/SGP4

EPOCH          = 2026-03-21T02:07:19.163136
MEAN_MOTION    = 14.79420129
ECCENTRICITY   = .00066919
INCLINATION    = 97.7094
RA_OF_ASC_NODE = 110.4439
ARG_OF_PERICENTER = 171.6066
MEAN_ANOMALY   = 248.7285

EPHEMERIS_TYPE = 0
CLASSIFICATION_TYPE = U
NORAD_CAT_ID   = 23343
ELEMENT_SET_NO = 999
REV_AT_EPOCH   = 68893
BSTAR          = .5835013E-4
MEAN_MOTION_DOT = .386E-5
MEAN_MOTION_DDOT = 0

CCSDS_OMM_VERS = 2.0
CREATION_DATE  = 
ORIGINATOR     = 

OBJECT_NAME    = SL-16 R/B
OBJECT_ID      = 1994-077B
CENTER_NAME    = EARTH
REF_FRAME      = TEME
TIME_SYSTEM    = UTC
MEAN_ELEMENT_THEORY = SGP/SGP4

EPOCH          = 2026-03-21T03:27:34.390656
MEAN_MOTION    = 14.15566762
ECCENTRICITY   = .00024192
INCLINATION    = 70.9847
RA_OF_ASC_NODE = 328.3929
ARG_OF_PERICENTER = 199.8144
MEAN_ANOMALY   = 160.2885

EPHEMERIS_TYPE = 0
CLASSIFICATION_TYPE = U
NORAD_CAT_ID   = 23405
ELEMENT_SET_NO = 999
REV_AT_EPOCH   = 61785
BSTAR          = .16239923E-3
MEAN_MOTION_DOT = .27E-5
MEAN_MOTION_DDOT = 0

CCSDS_OMM_VERS = 2.0
CREATION_DATE  = 
ORIGINATOR     = 

OBJECT_NAME    = ARIANE 40+ R/B
OBJECT_ID      = 1995-021B
CENTER_NAME    = EARTH
REF_FRAME      = TEME
TIME_SYSTEM    = UTC
MEAN_ELEMENT_THEORY = SGP/SGP4

EPOCH          = 2026-03-21T05:09:22.566528
MEAN_MOTION    = 14.39780156
ECCENTRICITY   = .00079521
INCLINATION    = 98.4476
RA_OF_ASC_NODE = 151.5402
ARG_OF_PERICENTER = 106.5497
MEAN_ANOMALY   = 318.6407

EPHEMERIS_TYPE = 0
CLASSIFICATION_TYPE = U
NORAD_CAT_ID   = 23561
ELEMENT_SET_NO = 999
REV_AT_EPOCH   = 62090
BSTAR          = .93098536E-4
MEAN_MOTION_DOT = .248E-5
MEAN_MOTION_DDOT = 0

CCSDS_OMM_VERS = 2.0
CREATION_DATE  = 
ORIGINATOR     = 

OBJECT_NAME    = SL-16 R/B
OBJECT_ID      = 1995-058B
CENTER_NAME    = EARTH
REF_FRAME      = TEME
TIME_SYSTEM    = UTC
MEAN_ELEMENT_THEORY = SGP/SGP4

EPOCH          = 2026-03-21T07:01:56.612640
MEAN_MOTION    = 14.15500893
ECCENTRICITY   = .00102379
INCLINATION    = 71.0221
RA_OF_ASC_NODE = 155.8961
ARG_OF_PERICENTER = 104.3712
MEAN_ANOMALY   = 255.8548

EPHEMERIS_TYPE = 0
CLASSIFICATION_TYPE = U
NORAD_CAT_ID   = 23705
ELEMENT_SET_NO = 999
REV_AT_EPOCH   = 56949
BSTAR          = .11170629E-4
MEAN_MOTION_DOT = -.26E-6
MEAN_MOTION_DDOT = 0

CCSDS_OMM_VERS = 2.0
CREATION_DATE  = 
ORIGINATOR     = 

OBJECT_NAME    = SL-16 R/B
OBJECT_ID      = 1996-051B
CENTER_NAME    = EARTH
REF_FRAME      = TEME
TIME_SYSTEM    = UTC
MEAN_ELEMENT_THEORY = SGP/SGP4

EPOCH          = 2026-03-21T05:08:18.302208
MEAN_MOTION    = 14.12418766
ECCENTRICITY   = .00141103
INCLINATION    = 70.7597
RA_OF_ASC_NODE = 150.8479
ARG_OF_PERICENTER = 129.8665
MEAN_ANOMALY   = 230.3698

EPHEMERIS_TYPE = 0
CLASSIFICATION_TYPE = U
NORAD_CAT_ID   = 24298
ELEMENT_SET_NO = 999
REV_AT_EPOCH   = 52327
BSTAR          = .81255896E-4
MEAN_MOTION_DOT = .101E-5
MEAN_MOTION_DDOT = 0

CCSDS_OMM_VERS = 2.0
CREATION_DATE  = 
ORIGINATOR     = 

OBJECT_NAME    = ORBVIEW 2 (SEASTAR)
OBJECT_ID      = 1997-037A
CENTER_NAME    = EARTH
REF_FRAME      = TEME
TIME_SYSTEM    = UTC
MEAN_ELEMENT_THEORY = SGP/SGP4

EPOCH          = 2026-03-21T04:44:24.272160
MEAN_MOTION    = 14.35502562
ECCENTRICITY   = .00027372
INCLINATION    = 98.8586
RA_OF_ASC_NODE = 244.8153
ARG_OF_PERICENTER = 47.5586
MEAN_ANOMALY   = 312.5829

EPHEMERIS_TYPE = 0
CLASSIFICATION_TYPE = U
NORAD_CAT_ID   = 24883
ELEMENT_SET_NO = 999
REV_AT_EPOCH   = 51012
BSTAR          = .95799849E-4
MEAN_MOTION_DOT = .229E-5
MEAN_MOTION_DDOT = 0

CCSDS_OMM_VERS = 2.0
CREATION_DATE  = 
ORIGINATOR     = 

OBJECT_NAME    = SL-16 R/B
OBJECT_ID      = 1998-043G
CENTER_NAME    = EARTH
REF_FRAME      = TEME
TIME_SYSTEM    = UTC
MEAN_ELEMENT_THEORY = SGP/SGP4

EPOCH          = 2026-03-20T21:18:04.928256
MEAN_MOTION    = 14.26052163
ECCENTRICITY   = .00096277
INCLINATION    = 98.8274
RA_OF_ASC_NODE = 33.3315
ARG_OF_PERICENTER = 348.4017
MEAN_ANOMALY   = 11.6939

EPHEMERIS_TYPE = 0
CLASSIFICATION_TYPE = U
NORAD_CAT_ID   = 25400
ELEMENT_SET_NO = 999
REV_AT_EPOCH   = 44058
BSTAR          = .37825004E-4
MEAN_MOTION_DOT = .45E-6
MEAN_MOTION_DDOT = 0

